<?xml version="1.0" encoding="UTF-8"?>
<ndm xmlns:xsi="http://www.w3.org/2001/XMLSchema-instance" xsi:noNamespaceSchemaLocation="https://sanaregistry.org/r/ndmxml_unqualified/ndmxml-2.0.0-master-2.0.xsd">
<omm id="CCSDS_OMM_VERS" version="2.0">
<header><CREATION_DATE/><ORIGINATOR/></header><body><segment><metadata><OBJECT_NAME>EUTELSAT 21B</OBJECT_NAME><OBJECT_ID>2012-062B</OBJECT_ID><CENTER_NAME>EARTH</CENTER_NAME><REF_FRAME>TEME</REF_FRAME><TIME_SYSTEM>UTC</TIME_SYSTEM><MEAN_ELEMENT_THEORY>SGP4</MEAN_ELEMENT_THEORY></metadata><data><meanElements><EPOCH>2025-12-27T02:49:59.133792</EPOCH><MEAN_MOTION>1.00272027</MEAN_MOTION><ECCENTRICITY>.0003232</ECCENTRICITY><INCLINATION>0.0650</INCLINATION><RA_OF_ASC_NODE>354.3058</RA_OF_ASC_NODE><ARG_OF_PERICENTER>287.9948</ARG_OF_PERICENTER><MEAN_ANOMALY>237.6268</MEAN_ANOMALY></meanElements><tleParameters><EPHEMERIS_TYPE>0</EPHEMERIS_TYPE><CLASSIFICATION_TYPE>U</CLASSIFICATION_TYPE><NORAD_CAT_ID>38992</NORAD_CAT_ID><ELEMENT_SET_NO>999</ELEMENT_SET_NO><REV_AT_EPOCH>4810</REV_AT_EPOCH><BSTAR>0</BSTAR><MEAN_MOTION_DOT>.152E-5</MEAN_MOTION_DOT><MEAN_MOTION_DDOT>0</MEAN_MOTION_DDOT></tleParameters></data></segment></body></omm>
<omm id="CCSDS_OMM_VERS" version="2.0">
<header><CREATION_DATE/><ORIGINATOR/></header><body><segment><metadata><OBJECT_NAME>EUTELSAT 70B</OBJECT_NAME><OBJECT_ID>2012-069A</OBJECT_ID><CENTER_NAME>EARTH</CENTER_NAME><REF_FRAME>TEME</REF_FRAME><TIME_SYSTEM>UTC</TIME_SYSTEM><MEAN_ELEMENT_THEORY>SGP4</MEAN_ELEMENT_THEORY></metadata><data><meanElements><EPOCH>2025-12-27T03:03:57.796128</EPOCH><MEAN_MOTION>1.00271037</MEAN_MOTION><ECCENTRICITY>.0004165</ECCENTRICITY><INCLINATION>0.0611</INCLINATION><RA_OF_ASC_NODE>352.4186</RA_OF_ASC_NODE><ARG_OF_PERICENTER>264.9069</ARG_OF_PERICENTER><MEAN_ANOMALY>315.0196</MEAN_ANOMALY></meanElements><tleParameters><EPHEMERIS_TYPE>0</EPHEMERIS_TYPE><CLASSIFICATION_TYPE>U</CLASSIFICATION_TYPE><NORAD_CAT_ID>39020</NORAD_CAT_ID><ELEMENT_SET_NO>999</ELEMENT_SET_NO><REV_AT_EPOCH>4778</REV_AT_EPOCH><BSTAR>0</BSTAR><MEAN_MOTION_DOT>-.21E-6</MEAN_MOTION_DOT><MEAN_MOTION_DDOT>0</MEAN_MOTION_DDOT></tleParameters></data></segment></body></omm>
<omm id="CCSDS_OMM_VERS" version="2.0">
<header><CREATION_DATE/><ORIGINATOR/></header><body><segment><metadata><OBJECT_NAME>EUTELSAT 117 WEST A</OBJECT_NAME><OBJECT_ID>2013-012A</OBJECT_ID><CENTER_NAME>EARTH</CENTER_NAME><REF_FRAME>TEME</REF_FRAME><TIME_SYSTEM>UTC</TIME_SYSTEM><MEAN_ELEMENT_THEORY>SGP4</MEAN_ELEMENT_THEORY></metadata><data><meanElements><EPOCH>2025-12-27T02:10:25.425120</EPOCH><MEAN_MOTION>1.00270814</MEAN_MOTION><ECCENTRICITY>.0002869</ECCENTRICITY><INCLINATION>0.0147</INCLINATION><RA_OF_ASC_NODE>334.3903</RA_OF_ASC_NODE><ARG_OF_PERICENTER>305.0792</ARG_OF_PERICENTER><MEAN_ANOMALY>92.1620</MEAN_ANOMALY></meanElements><tleParameters><EPHEMERIS_TYPE>0</EPHEMERIS_TYPE><CLASSIFICATION_TYPE>U</CLASSIFICATION_TYPE><NORAD_CAT_ID>39122</NORAD_CAT_ID><ELEMENT_SET_NO>999</ELEMENT_SET_NO><REV_AT_EPOCH>4670</REV_AT_EPOCH><BSTAR>0</BSTAR><MEAN_MOTION_DOT>.1E-6</MEAN_MOTION_DOT><MEAN_MOTION_DDOT>0</MEAN_MOTION_DDOT></tleParameters></data></segment></body></omm>
<omm id="CCSDS_OMM_VERS" version="2.0">
<header><CREATION_DATE/><ORIGINATOR/></header><body><segment><metadata><OBJECT_NAME>EUTELSAT 7B</OBJECT_NAME><OBJECT_ID>2013-022A</OBJECT_ID><CENTER_NAME>EARTH</CENTER_NAME><REF_FRAME>TEME</REF_FRAME><TIME_SYSTEM>UTC</TIME_SYSTEM><MEAN_ELEMENT_THEORY>SGP4</MEAN_ELEMENT_THEORY></metadata><data><meanElements><EPOCH>2025-12-27T02:45:44.542368</EPOCH><MEAN_MOTION>1.00271932</MEAN_MOTION><ECCENTRICITY>.0004772</ECCENTRICITY><INCLINATION>0.0671</INCLINATION><RA_OF_ASC_NODE>13.2831</RA_OF_ASC_NODE><ARG_OF_PERICENTER>308.9490</ARG_OF_PERICENTER><MEAN_ANOMALY>182.0483</MEAN_ANOMALY></meanElements><tleParameters><EPHEMERIS_TYPE>0</EPHEMERIS_TYPE><CLASSIFICATION_TYPE>U</CLASSIFICATION_TYPE><NORAD_CAT_ID>39163</NORAD_CAT_ID><ELEMENT_SET_NO>999</ELEMENT_SET_NO><REV_AT_EPOCH>4622</REV_AT_EPOCH><BSTAR>0</BSTAR><MEAN_MOTION_DOT>.7E-6</MEAN_MOTION_DOT><MEAN_MOTION_DDOT>0</MEAN_MOTION_DDOT></tleParameters></data></segment></body></omm>
<omm id="CCSDS_OMM_VERS" version="2.0">
<header><CREATION_DATE/><ORIGINATOR/></header><body><segment><metadata><OBJECT_NAME>EXPRESS-AT1</OBJECT_NAME><OBJECT_ID>2014-010A</OBJECT_ID><CENTER_NAME>EARTH</CENTER_NAME><REF_FRAME>TEME</REF_FRAME><TIME_SYSTEM>UTC</TIME_SYSTEM><MEAN_ELEMENT_THEORY>SGP4</MEAN_ELEMENT_THEORY></metadata><data><meanElements><EPOCH>2025-12-27T04:42:15.496416</EPOCH><MEAN_MOTION>1.00272900</MEAN_MOTION><ECCENTRICITY>.0000893</ECCENTRICITY><INCLINATION>0.0153</INCLINATION><RA_OF_ASC_NODE>289.8864</RA_OF_ASC_NODE><ARG_OF_PERICENTER>213.1890</ARG_OF_PERICENTER><MEAN_ANOMALY>79.4173</MEAN_ANOMALY></meanElements><tleParameters><EPHEMERIS_TYPE>0</EPHEMERIS_TYPE><CLASSIFICATION_TYPE>U</CLASSIFICATION_TYPE><NORAD_CAT_ID>39612</NORAD_CAT_ID><ELEMENT_SET_NO>999</ELEMENT_SET_NO><REV_AT_EPOCH>4309</REV_AT_EPOCH><BSTAR>0</BSTAR><MEAN_MOTION_DOT>.101E-5</MEAN_MOTION_DOT><MEAN_MOTION_DDOT>0</MEAN_MOTION_DDOT></tleParameters></data></segment></body></omm>
<omm id="CCSDS_OMM_VERS" version="2.0">
<header><CREATION_DATE/><ORIGINATOR/></header><body><segment><metadata><OBJECT_NAME>EXPRESS-AT2</OBJECT_NAME><OBJECT_ID>2014-010B</OBJECT_ID><CENTER_NAME>EARTH</CENTER_NAME><REF_FRAME>TEME</REF_FRAME><TIME_SYSTEM>UTC</TIME_SYSTEM><MEAN_ELEMENT_THEORY>SGP4</MEAN_ELEMENT_THEORY></metadata><data><meanElements><EPOCH>2025-12-27T05:06:28.176768</EPOCH><MEAN_MOTION>1.00270807</MEAN_MOTION><ECCENTRICITY>.0001702</ECCENTRICITY><INCLINATION>0.0177</INCLINATION><RA_OF_ASC_NODE>326.4541</RA_OF_ASC_NODE><ARG_OF_PERICENTER>310.4356</ARG_OF_PERICENTER><MEAN_ANOMALY>35.5342</MEAN_ANOMALY></meanElements><tleParameters><EPHEMERIS_TYPE>0</EPHEMERIS_TYPE><CLASSIFICATION_TYPE>U</CLASSIFICATION_TYPE><NORAD_CAT_ID>39613</NORAD_CAT_ID><ELEMENT_SET_NO>999</ELEMENT_SET_NO><REV_AT_EPOCH>4277</REV_AT_EPOCH><BSTAR>0</BSTAR><MEAN_MOTION_DOT>-.259E-5</MEAN_MOTION_DOT><MEAN_MOTION_DDOT>0</MEAN_MOTION_DDOT></tleParameters></data></segment></body></omm>
<omm id="CCSDS_OMM_VERS" version="2.0">
<header><CREATION_DATE/><ORIGINATOR/></header><body><segment><metadata><OBJECT_NAME>EUTELSAT 3B</OBJECT_NAME><OBJECT_ID>2014-030A</OBJECT_ID><CENTER_NAME>EARTH</CENTER_NAME><REF_FRAME>TEME</REF_FRAME><TIME_SYSTEM>UTC</TIME_SYSTEM><MEAN_ELEMENT_THEORY>SGP4</MEAN_ELEMENT_THEORY></metadata><data><meanElements><EPOCH>2025-12-27T02:44:37.147776</EPOCH><MEAN_MOTION>1.00270441</MEAN_MOTION><ECCENTRICITY>.0004313</ECCENTRICITY><INCLINATION>0.0600</INCLINATION><RA_OF_ASC_NODE>353.8386</RA_OF_ASC_NODE><ARG_OF_PERICENTER>242.3071</ARG_OF_PERICENTER><MEAN_ANOMALY>263.9517</MEAN_ANOMALY></meanElements><tleParameters><EPHEMERIS_TYPE>0</EPHEMERIS_TYPE><CLASSIFICATION_TYPE>U</CLASSIFICATION_TYPE><NORAD_CAT_ID>39773</NORAD_CAT_ID><ELEMENT_SET_NO>999</ELEMENT_SET_NO><REV_AT_EPOCH>4234</REV_AT_EPOCH><BSTAR>0</BSTAR><MEAN_MOTION_DOT>.42E-6</MEAN_MOTION_DOT><MEAN_MOTION_DDOT>0</MEAN_MOTION_DDOT></tleParameters></data></segment></body></omm>
<omm id="CCSDS_OMM_VERS" version="2.0">
<header><CREATION_DATE/><ORIGINATOR/></header><body><segment><metadata><OBJECT_NAME>EUTELSAT 115 WEST B</OBJECT_NAME><OBJECT_ID>2015-010B</OBJECT_ID><CENTER_NAME>EARTH</CENTER_NAME><REF_FRAME>TEME</REF_FRAME><TIME_SYSTEM>UTC</TIME_SYSTEM><MEAN_ELEMENT_THEORY>SGP4</MEAN_ELEMENT_THEORY></metadata><data><meanElements><EPOCH>2025-12-26T05:44:38.581152</EPOCH><MEAN_MOTION>1.00273604</MEAN_MOTION><ECCENTRICITY>.0000078</ECCENTRICITY><INCLINATION>0.0077</INCLINATION><RA_OF_ASC_NODE>147.8651</RA_OF_ASC_NODE><ARG_OF_PERICENTER>258.8043</ARG_OF_PERICENTER><MEAN_ANOMALY>19.5710</MEAN_ANOMALY></meanElements><tleParameters><EPHEMERIS_TYPE>0</EPHEMERIS_TYPE><CLASSIFICATION_TYPE>U</CLASSIFICATION_TYPE><NORAD_CAT_ID>40425</NORAD_CAT_ID><ELEMENT_SET_NO>999</ELEMENT_SET_NO><REV_AT_EPOCH>3965</REV_AT_EPOCH><BSTAR>0</BSTAR><MEAN_MOTION_DOT>-.3E-7</MEAN_MOTION_DOT><MEAN_MOTION_DDOT>0</MEAN_MOTION_DDOT></tleParameters></data></segment></body></omm>

</ndm>
