EUTELSAT 21B            
1 38992U 12062B   25361.11804553  .00000152  00000+0  00000+0 0  9992
2 38992   0.0650 354.3058 0003232 287.9948 237.6268  1.00272027 48107
EUTELSAT 70B            
1 39020U 12069A   25361.12775227 -.00000021  00000+0  00000+0 0  9994
2 39020   0.0611 352.4186 0004165 264.9069 315.0196  1.00271037 47787
EUTELSAT 117 WEST A     
1 39122U 13012A   25361.09057205  .00000010  00000+0  00000+0 0  9998
2 39122   0.0147 334.3903 0002869 305.0792  92.1620  1.00270814 46707
EUTELSAT 7B             
1 39163U 13022A   25361.11509887  .00000070  00000+0  00000+0 0  9991
2 39163   0.0671  13.2831 0004772 308.9490 182.0483  1.00271932 46224
EXPRESS-AT1             
1 39612U 14010A   25361.19601269  .00000101  00000+0  00000+0 0  9998
2 39612   0.0153 289.8864 0000893 213.1890  79.4173  1.00272900 43099
EXPRESS-AT2             
1 39613U 14010B   25361.21282612 -.00000259  00000+0  00000+0 0  9994
2 39613   0.0177 326.4541 0001702 310.4356  35.5342  1.00270807 42773
EUTELSAT 3B             
1 39773U 14030A   25361.11431884  .00000042  00000+0  00000+0 0  9998
2 39773   0.0600 353.8386 0004313 242.3071 263.9517  1.00270441 42348
EUTELSAT 115 WEST B     
1 40425U 15010B   25360.23933543 -.00000003  00000+0  00000+0 0  9992
2 40425   0.0077 147.8651 0000078 258.8043  19.5710  1.00273604 39657
